[{"OBJECT_NAME":"STARLINK-5999","OBJECT_ID":"2023-083AK","EPOCH":"2026-03-09T22:00:01.999584","MEAN_MOTION":15.07013342,"ECCENTRICITY":6.738e-5,"INCLINATION":43.0007,"RA_OF_ASC_NODE":67.916,"ARG_OF_PERICENTER":272.4181,"MEAN_ANOMALY":323.8788,"EPHEMERIS_TYPE":0,"CLASSIFICATION_TYPE":"U","NORAD_CAT_ID":56909,"ELEMENT_SET_NO":999,"REV_AT_EPOCH":567,"BSTAR":0.0039179222,"MEAN_MOTION_DOT":0.00059977,"MEAN_MOTION_DDOT":0},{"OBJECT_NAME":"NOAA 17 DEB","OBJECT_ID":"2002-032AW","EPOCH":"2026-03-09T06:42:02.833344","MEAN_MOTION":15.0155296,"ECCENTRICITY":0.0036655,"INCLINATION":98.9692,"RA_OF_ASC_NODE":191.508,"ARG_OF_PERICENTER":264.8759,"MEAN_ANOMALY":94.8277,"EPHEMERIS_TYPE":0,"CLASSIFICATION_TYPE":"U","NORAD_CAT_ID":48713,"ELEMENT_SET_NO":999,"REV_AT_EPOCH":26502,"BSTAR":0.0031489084,"MEAN_MOTION_DOT":0.00041514,"MEAN_MOTION_DDOT":0}]
